#aV2010  6  6  0  0   .00000000      96 DD+AD WGS84 FIT  NGA
## 1587       .00000000   900.00000000 55353  .0000000000000
+   31     1  2  3  4  5  6  7  8  9 10 11 12 13 14 15 16 17
+         18 19 20 21 22 23 24 26 27 28 29 30 31 32  0  0  0
+          0  0  0  0  0  0  0  0  0  0  0  0  0  0  0  0  0
+          0  0  0  0  0  0  0  0  0  0  0  0  0  0  0  0  0
+          0  0  0  0  0  0  0  0  0  0  0  0  0  0  0  0  0
++         0  0  0  0  0  0  0  0  0  0  0  0  0  0  0  0  0
++         0  0  0  0  0  0  0  0  0  0  0  0  0  0  0  0  0
++         0  0  0  0  0  0  0  0  0  0  0  0  0  0  0  0  0
++         0  0  0  0  0  0  0  0  0  0  0  0  0  0  0  0  0
++         0  0  0  0  0  0  0  0  0  0  0  0  0  0  0  0  0
%c cc cc ccc ccc cccc cccc cccc cccc ccccc ccccc ccccc ccccc
%c cc cc ccc ccc cccc cccc cccc cccc ccccc ccccc ccccc ccccc
%f  0.0000000  0.000000000  0.00000000000  0.000000000000000
%f  0.0000000  0.000000000  0.00000000000  0.000000000000000
%i    0    0    0    0      0      0      0      0         0
%i    0    0    0    0      0      0      0      0         0
/*      NGA, ST. LOUIS,MO.                                  
/*   EPHEMERIS COMPUTED FROM  3 DAYS OF DATA                
/* CCCCCCCCCCCCCCCCCCCCCCCCCCCCCCCCCCCCCCCCCCCCCCCCCCCCCCCCC
/* CCCCCCCCCCCCCCCCCCCCCCCCCCCCCCCCCCCCCCCCCCCCCCCCCCCCCCCCC
*  2010  6  6 16 45   .00000000                                                 
P  1   6292.786793 -24450.252072  -8156.742187   -127.876123                    
V  1   6985.021277  -7897.765292  29630.283011      -.040116                    
P  2  13742.296155  22971.888836   1525.273815    262.312708                    
V  2  -3636.983579     66.891008  30905.633832       .033022                    
P  3 -15366.046851 -11717.324513 -18726.424191    564.822113                    
V  3  22465.492560  -5337.846387 -15051.684454       .049606                    
P  4   2364.545014  22407.861415  13604.162237     98.198787                    
V  4 -12013.767898 -13413.309086  24238.940418       .081454                    
P  5   6985.230322  16462.667525 -19627.543609     -5.917615                    
V  5 -12617.552767  21528.083414  13659.288669      -.018447                    
P  6 -10533.243913 -13827.325508 -19939.017235    616.623845                    
V  6  25554.739657  -3597.078880 -10756.634077      -.123524                    
P  7 -13006.083632   7456.657273 -21940.148754     -1.046039                    
V  7 -14813.708110 -23511.443563    624.646723      -.002409                    
P  8  -4529.132440  17760.388454 -19025.048330      5.682586                    
V  8 -12537.748796 -20783.788010 -16942.568513       .001420                    
P  9  19038.807088  12412.487972  13232.645735     10.961808                    
V  9   8312.103073  15696.151684 -25594.734914       .022933                    
P 10  -1488.490995  22689.890637 -13615.210707    -44.015333                    
V 10 -10529.069855  13766.172257  24764.710629      -.007430                    
P 11 -21894.410309  -5330.913814  14061.425218    -67.294848                    
V 11 -10737.324406 -15346.562254 -21755.555896      -.024480                    
P 12  16651.928834  -1161.237327  20668.988484   -107.064987                    
V 12 -11556.294528  23472.215016  10803.257720       .041732                    
P 13 -24565.164406   5126.479131  -8898.991077    303.600344                    
V 13 -11006.083593  -1898.835146  29725.012164      -.004673                    
P 14   7945.144648 -14011.040673  21229.345942     54.081746                    
V 14  26592.413323    792.101189  -9617.800179       .042409                    
P 15  22757.907685   7080.880428 -11833.231656   -260.857426                    
V 15 -14847.089785   3347.773080 -26402.549207       .064741                    
P 16  -1901.058103 -20235.000922 -16907.647077    -78.856727                    
V 16  12063.072609 -18035.227843  20452.087990      -.037094                    
P 17  -9521.568348  14363.943573  20257.906191    155.212016                    
V 17 -25568.833012   -664.302981 -11814.148387       .019856                    
P 18  17272.673404 -17643.521791  -8989.519802     72.967665                    
V 18  -2630.925231  12197.814652 -28526.883023       .024123                    
P 19 -23032.991465  -8326.875538 -10627.148058    -40.310859                    
V 19  13517.462712  -1832.634244 -27469.295011      -.027614                    
P 20 -17628.648715   3837.479980  19340.893824     55.030002                    
V 20   9458.753151 -23137.377689  13168.942110      -.005604                    
P 21  11271.990989 -11220.676762 -20868.363461    -65.270213                    
V 21  15137.003799  22947.239031  -4723.547390      -.026130                    
P 22  11480.961760 -23812.405725   2143.331032    170.392697                    
V 22   4455.457969   -428.347381 -31079.680016      -.009029                    
P 23 -26727.290408    543.022934    501.414505    368.040183                    
V 23    584.217259  -2347.064734  31686.937323      -.014867                    
P 24    301.725938 -21778.839799 -15300.818436    293.915178                    
V 24  11414.751174  15943.372249 -22103.673144       .032963                    
P 26  25008.576656   5891.658838  -8054.540550    -62.285545                    
V 26  -9372.771746   1094.621290 -29978.899763      -.054313                    
P 27  19667.999365  14363.707579  11466.449179    158.625178                    
V 27   6445.201661  11914.476890 -27479.603090       .034134                    
P 28 -12891.330360  23038.502159    268.273860    -14.273121                    
V 28  -2284.067478  -1564.423100 -32163.295342       .011160                    
P 29  24719.488431  -5663.124874  -7732.076786    125.416292                    
V 29   9983.867008   2604.634386  29689.407027       .029072                    
P 30  17496.578626 -13369.237294  14418.127363    249.463972                    
V 30  -5946.405166  18228.200478  23527.056061       .034503                    
P 31  -4606.950321 -23042.878656  12410.004992    -32.405672                    
V 31   9914.782530  12040.533520  26645.306808       .021720                    
P 32 -14364.604427  -5959.394868  21846.676148     -9.725719                    
V 32  14141.864020 -22969.489225   3416.771592      -.085122                    
EOF
